LEMUR-2-DEMBITZ         
1 42842U 17042T   26068.47492167  .00020231  00000+0  76561-3 0  9991
2 42842  97.3807 250.9241 0006961  17.1421 343.0051 15.26947128473114
STARLINK-33608          
1 63425U 25065AC  26068.52188495  .00031623  00000+0  11526-2 0  9993
2 63425  42.9988 108.0021 0000484 240.5355 119.5448 15.27612250 52813
